{
  "norad_id": 57237,
  "name": "STARLINK-6365",
  "history": [
    {
      "epoch": "2026-03-28T19:29:03.583392Z",
      "apogee_km": 486.8200799207707,
      "perigee_km": 484.2976716864132,
      "latitude_deg": -2.8601725520188606e-06,
      "longitude_deg": 163.91583731109804,
      "height_km": 485.5209226243946,
      "semi_major_axis_km": 6863.695875803592,
      "eccentricity": 0.00018375,
      "inclination_deg": 43.0006,
      "raan_deg": 282.4077,
      "arg_perigee_deg": 261.5703,
      "mean_anomaly_deg": 98.494,
      "mean_motion_rev_day": 15.26742214
    }
  ]
}